hk_district,district,restaurant,cuisine,veg_type,address,latitude,longitude,openrice_url,phone,remarks
港島,香港大學,一念素食,"中菜, 私房菜",純素,香港大學百周年校園逸夫教學樓地下,"22.28404325854272, 114.13413052472099",,https://www.openrice.com/zh/hongkong/r-%E4%B8%80%E5%BF%B5%E7%B4%A0%E9%A3%9F-%E8%96%84%E6%89%B6%E6%9E%97-%E8%A5%BF%E5%BC%8F-%E7%84%A1%E8%82%89%E9%A4%90%E5%96%AE-r112304,29649011,
港島,西環,寶蓮苑素食,"中菜, 粵菜",純素,西環石塘咀皇后大道西604號地舖,"22.286503012490105, 114.13286233595076",,https://www.openrice.com/zh/hongkong/r-%E5%AF%B6%E8%93%AE%E8%8B%91%E7%B4%A0%E9%A3%9F-%E8%A5%BF%E7%92%B0-%E7%B2%B5%E8%8F%9C-%E5%BB%A3%E6%9D%B1-%E7%B4%A0%E9%A3%9F-r118537,25438981,
港島,西環,吉祥草,"多國菜, Cafe",純素,西環德輔道西343號均益大廈2期商場地下22號舖,"22.287785250100853, 114.13797099510727",,https://www.openrice.com/zh/hongkong/r-%E5%90%89%E7%A5%A5%E8%8D%89-%E8%A5%BF%E7%92%B0-%E5%A4%9A%E5%9C%8B%E8%8F%9C-all-day-breakfast-r672383,57071151,
港島,西環,Clean,"多國菜, Cafe",蛋奶素,西環皇后大道西100號地舖,"22.28619734154833, 114.14643942016238",,https://www.openrice.com/zh/hongkong/r-clean-%E8%A5%BF%E7%92%B0-%E8%A5%BF%E5%BC%8F-r731690,91975360,
港島,西營盤,寶蓮苑素食,"中菜, 粵菜",純素,西環西營盤皇后大道西308號地舖,"22.28685826375319, 114.14190254509603",,https://www.openrice.com/zh/hongkong/r-%E5%AF%B6%E8%93%AE%E8%8B%91%E7%B4%A0%E9%A3%9F-%E8%A5%BF%E7%92%B0-%E7%B2%B5%E8%8F%9C-%E5%BB%A3%E6%9D%B1-%E7%B4%A0%E9%A3%9F-r18683,25171178,
港島,西營盤,LN fortunate coffee,"西式, Cafe",純素,西環西營盤第二街118號懿山地舖,"22.286347709921635, 114.14021959523981",,https://www.openrice.com/zh/hongkong/r-ln-coffee-%E8%A5%BF%E7%92%B0-%E8%A5%BF%E5%BC%8F-%E7%B4%A0%E9%A3%9F-r485637,28583898,
港島,中環,無肉食（中環）,自助餐,蛋奶素,中環嘉咸街23號My Central地下5號舖,"22.283681328867626, 114.15378427335315",,https://www.openrice.com/zh/hongkong/r-%E7%84%A1%E8%82%89%E9%A3%9F-%E4%B8%AD%E7%92%B0-%E6%B8%AF%E5%BC%8F-%E7%B4%A0%E9%A3%9F-r658911,23362908,
港島,中環,福祿壽健康素食,"中菜, 粵菜",蛋奶素,中環鐵行里8號地下,"22.28492116727487, 114.15518780873238",,https://www.openrice.com/zh/hongkong/r-%E7%A6%8F%E7%A5%BF%E5%A3%BD%E5%81%A5%E5%BA%B7%E7%B4%A0%E9%A3%9F-%E4%B8%AD%E7%92%B0-%E7%B2%B5%E8%8F%9C-%E5%BB%A3%E6%9D%B1-%E7%B4%A0%E9%A3%9F-r13448,25439843,
港島,中環,Nuttea,台式飲品,純素,中環皇后大道中151-155號兆英商業大廈地下C2號舖,"22.284950391487587, 114.1537815780751",,https://www.openrice.com/zh/hongkong/r-nuttea-%E4%B8%AD%E7%92%B0-%E5%8F%B0%E7%81%A3%E8%8F%9C-%E6%9E%9C%E6%B1%81-r694294,84816591,
港島,中環,Soland,私房菜,純素,中環機利文新街6號3樓,"22.284827602342354, 114.15390205291139",,https://www.openrice.com/zh/hongkong/r-soland-%E4%B8%AD%E7%92%B0-%E8%A5%BF%E5%BC%8F-%E7%B4%A0%E9%A3%9F-r14100,94733412,位於唐3樓，要行樓梯；食之前一定要Whatsapp 預約
港島,中環,Root Vegan 本原純素,"多國菜, Cafe",純素,中環威靈頓街112-114號新威大廈1樓102-103號舖,"22.28345730419216, 114.15417689523963",,https://www.openrice.com/zh/hongkong/r-root-vegan-central-international-salad-r720910,98509558,
港島,中環,Benko By Nüte,外賣飯盒,非素食,"中環康樂廣場1號怡和大廈LG層9A, 9B 及 9C號舖","22.283188087450874, 114.1592949817472",,https://www.openrice.com/zh/hongkong/r-benko-by-nute-%E4%B8%AD%E7%92%B0-%E6%97%A5%E6%9C%AC%E8%8F%9C-%E6%B2%99%E5%BE%8B-r784411,,
港島,中環,WOW Burger,漢堡包店,蛋奶素,中環康樂廣場1號怡和大廈LG樓9A號舖,"22.28321787029972, 114.15929498174724",,https://www.openrice.com/zh/hongkong/r-wow-burger-%E4%B8%AD%E7%92%B0-%E7%BE%8E%E5%9C%8B%E8%8F%9C-r795060,,
港島,中環,珺,多國菜,純素,中環威靈頓街2-8號威靈頓廣場M88 6樓,"22.281044321818605, 114.15606695458204",,https://www.openrice.com/zh/hongkong/r-%E7%8F%BA-%E4%B8%AD%E7%92%B0-%E5%A4%9A%E5%9C%8B%E8%8F%9C-%E7%84%A1%E8%82%89%E9%A4%90%E5%96%AE-r691967,28559555,
港島,中環,Kyoto Joe,日本菜,非素食,中環蘭桂坊德己立街30-36號加州大廈23樓,"22.281144807313375, 114.15549975291121",,https://www.openrice.com/zh/hongkong/r-kyoto-joe-%E4%B8%AD%E7%92%B0-%E6%97%A5%E6%9C%AC%E8%8F%9C-%E5%A3%BD%E5%8F%B8-%E5%88%BA%E8%BA%AB-r658128,28046800,
港島,中環,Mother Pearl 圓貝,台式飲品,純素,中環擺花街23-39號中環大廈地舖,"22.282710892005422, 114.15365998601268",,https://www.openrice.com/zh/hongkong/r-%E5%9C%93%E8%B2%9D-%E4%B8%AD%E7%92%B0-%E5%8F%B0%E7%81%A3%E8%8F%9C-%E7%B4%A0%E9%A3%9F-r678743,35965100,
港島,中環,Treehouse,西式,蛋奶素,中環砵甸乍街45號The Steps ‧ H Code地下1號舖,"22.282367744116563, 114.15421612407556",,https://www.openrice.com/zh/hongkong/r-treehouse-central-international-vegetarian-r637690,37912277,
港島,中環,樂茶軒 (大館)  ,"中菜, 粵菜",蛋奶素,中環荷李活道10號(舊中區警署)大館總部大樓地下01-G07號舖,"22.28193798940442, 114.15433563756797",,https://www.openrice.com/zh/hongkong/r-%E6%A8%82%E8%8C%B6%E8%BB%92-%E4%B8%AD%E7%92%B0-%E7%B2%B5%E8%8F%9C-%E5%BB%A3%E6%9D%B1-%E7%B4%A0%E9%A3%9F-r577634,22765777,
港島,中環,富 Madame Fu,"中菜, 粵菜",非素食,中環荷李活道10號(舊中區警署)大館營房大樓3樓,"22.28142490744273, 114.15386469594584",,https://www.openrice.com/zh/hongkong/r-%E5%AF%8C-%E4%B8%AD%E7%92%B0-%E7%B2%B5%E8%8F%9C-%E5%BB%A3%E6%9D%B1-%E9%BB%9E%E5%BF%83-r578998,21142118,
港島,中環,VEDA,多國菜,蛋奶素,中環亞畢諾道 2號,"22.28026467724219, 114.15456266762291",,https://www.openrice.com/zh/hongkong/r-veda-%E4%B8%AD%E7%92%B0-%E5%A4%9A%E5%9C%8B%E8%8F%9C-%E7%84%A1%E8%82%89%E9%A4%90%E5%96%AE-r612886,37553067,
港島,中環,Veggie4love,多國菜,蛋奶素,中環士丹利街11號10樓,"22.282268905113295, 114.15580210125621",,https://www.openrice.com/zh/hongkong/r-veggie4love-%E4%B8%AD%E7%92%B0-%E5%A4%9A%E5%9C%8B%E8%8F%9C-%E6%9C%89%E6%A9%9F%E9%A3%9F%E5%93%81-r731515,21779477,
港島,金鐘,樂茶軒 (香港公園),"中菜, 粵菜",蛋奶素,金鐘香港公園羅桂祥茶藝館地下,"22.27794862412983, 114.1626685149436",,https://www.openrice.com/zh/hongkong/r-%E6%A8%82%E8%8C%B6%E8%BB%92-%E9%87%91%E9%90%98-%E7%B2%B5%E8%8F%9C-%E5%BB%A3%E6%9D%B1-%E7%B4%A0%E9%A3%9F-r13330,28017177,
港島,金鐘,Nuttea,台式飲品,純素,金鐘金鐘道93號Lab Concept 金鐘廊1樓D02B號舖,"22.278633336707937, 114.16480419911656",,https://www.openrice.com/zh/hongkong/r-nuttea-%E9%87%91%E9%90%98-%E5%8F%B0%E7%81%A3%E8%8F%9C-%E5%8F%B0%E5%BC%8F%E9%A3%B2%E5%93%81-r759664,54281509,
港島,灣仔,麗姐廚房,中菜,蛋奶素,灣仔譚臣道105-111號豪富商業大廈二樓A-D室,"22.277493340276628, 114.1739966240753",,https://www.openrice.com/zh/hongkong/r-%E9%BA%97%E5%A7%90%E5%BB%9A%E6%88%BF-%E7%81%A3%E4%BB%94-%E6%B8%AF%E5%BC%8F-%E7%B4%A0%E9%A3%9F-r78176,25756060,
港島,灣仔,蓮子麗姐素食,中菜,蛋奶素,灣仔石水渠街72A號地舖,"22.27398164901108, 114.17410666649118",,https://www.openrice.com/zh/hongkong/r-%E8%93%AE%E5%AD%90%E9%BA%97%E5%A7%90%E7%B4%A0%E9%A3%9F-%E7%81%A3%E4%BB%94-%E7%B2%B5%E8%8F%9C-%E5%BB%A3%E6%9D%B1-%E7%B4%A0%E9%A3%9F-r833481,28334604,
港島,灣仔,活蘭印度素食 Woodlands Indian Vegetarian Restaurant,印度菜,蛋奶素,灣仔盧押道20號其康大廈1樓,"22.27882744634854, 114.17185836807413",,https://www.openrice.com/zh/hongkong/r-woodlands-indian-vegetarian-restaurant-wan-chai-indian-vegetarian-r781091,21292188,
港島,灣仔,貴德宮 Veggie Palace,"中菜, 私房菜",蛋奶素,灣仔克街6號廣生行大廈B座UG樓,"22.2776749839744, 114.17747148174692",,https://www.openrice.com/zh/hongkong/r-%E8%B2%B4%E5%BE%B7%E5%AE%AE%E7%A7%81%E6%88%BF%E7%B4%A0%E5%AE%B4-%E7%81%A3%E4%BB%94-%E6%B8%AF%E5%BC%8F-%E7%B4%A0%E9%A3%9F-r47196,64381628,
港島,灣仔,天然齋,"中菜, 粵菜",蛋奶素,灣仔謝斐道254-272號杜誌台11-12號地舖,"22.279162693106905, 114.17725300019774",,https://www.openrice.com/zh/hongkong/r-%E5%A4%A9%E7%84%B6%E9%BD%8B-%E7%81%A3%E4%BB%94-%E5%A4%9A%E5%9C%8B%E8%8F%9C-%E7%84%A1%E8%82%89%E9%A4%90%E5%96%AE-r452555,23386179,
港島,灣仔,東方素,"中菜, 粵菜",蛋奶素,灣仔軒尼詩道239號3樓,"22.278244204489987, 114.17602579699363",,https://www.openrice.com/zh/hongkong/r-%E6%9D%B1%E6%96%B9%E7%B4%A0-%E7%81%A3%E4%BB%94-%E6%B8%AF%E5%BC%8F-%E7%B4%A0%E9%A3%9F-r516798,26036266,
港島,灣仔,東方小祇園,"中菜, 粵菜",蛋奶素,灣仔軒尼詩道241號,"22.278148945653324, 114.1760992900922",,https://www.openrice.com/zh/hongkong/r-%E6%9D%B1%E6%96%B9%E5%B0%8F%E7%A5%87%E5%9C%92%E9%BD%8B%E8%8F%9C-%E7%81%A3%E4%BB%94-%E7%B2%B5%E8%8F%9C-%E5%BB%A3%E6%9D%B1-%E7%B4%A0%E9%A3%9F-r3843,25074839,
港島,灣仔,一虎,日本菜,非素食,灣仔廈門街23號地舖,"22.275949220126773, 114.17198526534666",,https://www.openrice.com/zh/hongkong/r-%E4%B8%80%E8%99%8E-%E7%81%A3%E4%BB%94-%E6%97%A5%E6%9C%AC%E8%8F%9C-%E6%8B%89%E9%BA%B5-r492037,28080635,
港島,灣仔,JAJA,西式,蛋奶素,灣仔港灣道2號香港藝術中心6樓,"22.280414636126913, 114.17080622407545",,https://www.openrice.com/zh/hongkong/r-jaja-%E7%81%A3%E4%BB%94-%E8%A5%BF%E5%BC%8F-%E7%B4%A0%E9%A3%9F-r746789,28773999,
港島,灣仔,居素屋日本野菜料理,日本菜,蛋奶素,灣仔灣仔道83號9樓,"22.27644255134366, 114.17491042471566",,https://www.openrice.com/zh/hongkong/r-%E5%B1%85%E7%B4%A0%E5%B1%8B%E6%97%A5%E6%9C%AC%E9%87%8E%E8%8F%9C%E6%96%99%E7%90%86-%E7%81%A3%E4%BB%94-%E6%97%A5%E6%9C%AC%E8%8F%9C-%E7%B4%A0%E9%A3%9F-r179227,55008812,
港島,灣仔,Wanaka,"多國菜, Cafe",純素,灣仔景星街8號,"22.27411939274099, 114.17436995458054",,https://www.openrice.com/zh/hongkong/r-wanaka-wan-chai-western-vegetarian-r805291,60808251,
港島,銅鑼灣,大自然素食（銅鑼灣）,"中菜, 粵菜",蛋奶素,銅鑼灣軒尼詩道黃金廣場8樓,"22.28015679218789, 114.18424752407539",,https://www.openrice.com/zh/hongkong/r-%E5%A4%A7%E8%87%AA%E7%84%B6%E7%B4%A0%E9%A3%9F-%E9%8A%85%E9%91%BC%E7%81%A3-%E6%B8%AF%E5%BC%8F-%E7%B4%A0%E9%A3%9F-r22451,28081386,
港島,銅鑼灣,Nuttea,台式飲品,純素,銅鑼灣勿地臣街1號時代廣場B1樓city’super 221號舖,"22.278304611146485, 114.18200760873209",,https://www.openrice.com/zh/hongkong/r-nuttea-%E9%8A%85%E9%91%BC%E7%81%A3-%E5%8F%B0%E7%81%A3%E8%8F%9C-%E6%9E%9C%E6%B1%81-r700004,94274882,
港島,銅鑼灣,素.喜.館,多國菜,蛋奶素,銅鑼灣登龍街52號景隆商業大廈9樓,"22.27969907654793, 114.18250379523961",,https://www.openrice.com/zh/hongkong/r-%E7%B4%A0-%E5%96%9C-%E9%A4%A8-%E9%8A%85%E9%91%BC%E7%81%A3-%E5%A4%9A%E5%9C%8B%E8%8F%9C-%E7%84%A1%E8%82%89%E9%A4%90%E5%96%AE-r500858,26028268,食之前一定要 Whatsapp 預約
港島,銅鑼灣,木糠甜品屋,"港式, 甜品店",非素食,銅鑼灣希雲街20號地下,"22.278088055604528, 114.18682355308864",,https://www.openrice.com/zh/hongkong/r-%E6%9C%A8%E7%B3%A0%E7%94%9C%E5%93%81%E5%B1%8B-%E9%8A%85%E9%91%BC%E7%81%A3-%E6%B8%AF%E5%BC%8F-%E7%94%9C%E5%93%81-%E7%B3%96%E6%B0%B4-r51431,28938311,
港島,銅鑼灣,功德林上海素食 (銅鑼灣),"中菜, 滬菜",蛋奶素,銅鑼灣糖街25-31號Sugar+20樓,"22.2809718145942, 114.18676976207331",,https://www.openrice.com/zh/hongkong/r-%E5%8A%9F%E5%BE%B7%E6%9E%97%E4%B8%8A%E6%B5%B7%E7%B4%A0%E9%A3%9F-%E9%8A%85%E9%91%BC%E7%81%A3-%E6%BB%AC%E8%8F%9C-%E4%B8%8A%E6%B5%B7-%E7%B4%A0%E9%A3%9F-r793570,28819966,
港島,銅鑼灣,PEEK-A-POKE,西式,蛋奶素,銅鑼灣希雲街16號地舖,"22.278259407089386, 114.18673439523968",,https://www.openrice.com/zh/hongkong/r-peek-a-poke-%E9%8A%85%E9%91%BC%E7%81%A3-%E7%BE%8E%E5%9C%8B%E8%8F%9C-%E6%B2%99%E5%BE%8B-r599440,55957729,
港島,銅鑼灣,So Coco,雪糕店,純素,銅鑼灣霎東街9A號地舖,"22.277920973712167, 114.18290348777202",,https://www.openrice.com/zh/hongkong/r-so-coco-%E9%8A%85%E9%91%BC%E7%81%A3-%E6%B3%B0%E5%9C%8B%E8%8F%9C-%E9%9B%AA%E7%B3%95-%E4%B9%B3%E9%85%AA-r808873,35680228,
港島,銅鑼灣,樂園素食,"中菜, 粵菜",蛋奶素,銅鑼灣謝斐道535號Tower 535地庫B04號舖,"22.28135845298119, 114.18380235767272",,https://www.openrice.com/zh/hongkong/r-%E6%A8%82%E5%9C%92%E7%B4%A0%E9%A3%9F-%E9%8A%85%E9%91%BC%E7%81%A3-%E7%B2%B5%E8%8F%9C-%E5%BB%A3%E6%9D%B1-%E7%B4%A0%E9%A3%9F-r689407,26331386,
港島,天后,天天素食,"中菜, 粵菜",蛋奶素,天后英皇道14號天后蘋果商場G6-7號舖,"22.282811109656564, 114.19250202456449",,https://www.openrice.com/zh/hongkong/r-%E5%A4%A9%E5%A4%A9%E7%B4%A0%E9%A3%9F-%E5%A4%A9%E5%90%8E-%E7%B2%B5%E8%8F%9C-%E5%BB%A3%E6%9D%B1-%E7%B4%A0%E9%A3%9F-r30333,25660096,
港島,北角,素之樂創意蔬食料理,多國菜,蛋奶素,北角渣華道56號胡日皆商業中心1樓108室,"22.291940827793606, 114.19791819401561",,https://www.openrice.com/zh/hongkong/r-%E7%B4%A0%E4%B9%8B%E6%A8%82%E5%89%B5%E6%84%8F%E8%94%AC%E9%A3%9F%E6%96%99%E7%90%86-%E5%8C%97%E8%A7%92-%E5%A4%9A%E5%9C%8B%E8%8F%9C-%E7%B4%A0%E9%A3%9F-r19779,28071130,
港島,北角,滕王閣素葷美食,港式,非素食,北角和富道21-53號和富地庫B50-51號舖和富樓下美食廣場C5號舖,"22.292243719317963, 114.19669318174738",,https://www.openrice.com/zh/hongkong/r-%E6%BB%95%E7%8E%8B%E9%96%A3%E7%B4%A0%E8%91%B7%E7%BE%8E%E9%A3%9F-north-point-hong-kong-style-vegetarian-r680932,54277888,
港島,北角,三德素食館 (僑冠大廈),"中菜, 粵菜",蛋奶素,北角英皇道395號僑冠大廈1樓,"22.29119584339536, 114.1995346580123",,https://www.openrice.com/zh/hongkong/r-%E4%B8%89%E5%BE%B7%E7%B4%A0%E9%A3%9F%E9%A4%A8-%E5%8C%97%E8%A7%92-%E7%B2%B5%E8%8F%9C-%E5%BB%A3%E6%9D%B1-%E7%B4%A0%E9%A3%9F-r12333,28561333,
港島,北角,素食園坊,港式,蛋奶素,北角英皇道406-408號康威大廈地下3號舖,"22.290595307097032, 114.1988781708931",,https://www.openrice.com/zh/hongkong/r-%E7%B4%A0%E9%A3%9F%E5%9C%92%E5%9D%8A-%E5%8C%97%E8%A7%92-%E6%B8%AF%E5%BC%8F-%E7%B4%A0%E9%A3%9F-r666149,28779411,
港島,北角,意素園,"中菜, 粵菜",純素,北角北角道10號北角亞太商業中心地下1號舖,"22.29141537447339, 114.1967093731363",,https://www.openrice.com/zh/hongkong/r-%E6%84%8F%E7%B4%A0%E5%9C%92-%E5%8C%97%E8%A7%92-%E7%B2%B5%E8%8F%9C-%E5%BB%A3%E6%9D%B1-%E7%B4%A0%E9%A3%9F-r785290,90363481,
港島,北角,上善素餐廳,"中菜, 粵菜",蛋奶素,北角錦屏街7-9號地舖,"22.290752131681803, 114.20005369677503",,https://www.openrice.com/zh/hongkong/r-%E4%B8%8A%E5%96%84%E7%B4%A0%E9%A4%90%E5%BB%B3-%E5%8C%97%E8%A7%92-%E7%B2%B5%E8%8F%9C-%E5%BB%A3%E6%9D%B1-%E7%B4%A0%E9%A3%9F-r563019,66832121,
港島,北角,轉素快,港式,蛋奶素,北角電氣道308號聯和大廈地下C4號舖,"22.290431930432458, 114.19478194621597",,https://www.openrice.com/zh/hongkong/r-%E8%BD%89%E7%B4%A0%E5%BF%AB-%E5%8C%97%E8%A7%92-%E6%B8%AF%E5%BC%8F-%E7%B4%A0%E9%A3%9F-r809041,67462803,
港島,鰂魚涌,陽光素食,"中菜, 粵菜",蛋奶素,鰂魚涌海澤街5號海暉大廈地舖,"22.288818820612978, 114.21057539836016",,https://www.openrice.com/zh/hongkong/r-%E9%99%BD%E5%85%89%E7%B4%A0%E9%A3%9F-%E9%B0%82%E9%AD%9A%E6%B6%8C-%E7%B2%B5%E8%8F%9C-%E5%BB%A3%E6%9D%B1-%E7%B4%A0%E9%A3%9F-r797130,92782678,
港島,太古,好素純素餐廳,多國菜,純素,太古康山道2號康蘭居9樓,"22.284213643362172, 114.21643449870191",,https://www.openrice.com/zh/hongkong/r-%E5%A5%BD%E7%B4%A0%E7%B4%94%E7%B4%A0%E9%A4%90%E5%BB%B3-%E5%A4%AA%E5%8F%A4-%E5%A4%9A%E5%9C%8B%E8%8F%9C-%E5%BB%9A%E5%B8%AB%E7%99%BC%E8%BE%A6-r721225,28809188,
港島,西灣河,金膳健康素食,"中菜, 粵菜",蛋奶素,西灣河筲箕灣道250號御景軒地下F-G號舖,"22.280296280622974, 114.22504241058286",,https://www.openrice.com/zh/hongkong/r-%E9%87%91%E8%86%B3%E5%81%A5%E5%BA%B7%E7%B4%A0%E9%A3%9F-%E8%A5%BF%E7%81%A3%E6%B2%B3-%E7%B2%B5%E8%8F%9C-%E5%BB%A3%E6%9D%B1-%E7%B4%A0%E9%A3%9F-r14702,25696333,
九龍,尖沙咀,Green Common 海港城店,多國菜,純素,尖沙咀廣東道17號海港城海運大廈地下OT G61號舖,"22.295162976308962, 114.16780174959108",,https://www.openrice.com/zh/hongkong/r-green-common-%E5%B0%96%E6%B2%99%E5%92%80-%E5%A4%9A%E5%9C%8B%E8%8F%9C-%E6%B2%99%E5%BE%8B-r512455,31021220,
九龍,尖沙咀,緻素坊 Veggie Kingdom,"中菜, 粵菜",蛋奶素,尖沙咀廣東道120號海威商業中心7樓,"22.299634814669837, 114.16871940873287",,https://www.openrice.com/zh/hongkong/r-%E7%B7%BB%E7%B4%A0%E5%9D%8A-%E5%B0%96%E6%B2%99%E5%92%80-%E6%B8%AF%E5%BC%8F-%E7%B4%A0%E9%A3%9F-r720040,23663233,
九龍,尖沙咀,大自然素食（尖沙咀）,"中菜, 粵菜",蛋奶素,尖沙咀美麗華廣場一期2樓212號舖,"22.301411706284743, 114.17261109524038",,https://www.openrice.com/zh/hongkong/r-%E5%A4%A7%E8%87%AA%E7%84%B6%E7%B4%A0%E9%A3%9F-%E5%B0%96%E6%B2%99%E5%92%80-%E6%B8%AF%E5%BC%8F-%E7%B4%A0%E9%A3%9F-r38102,23761186,
九龍,尖沙咀,功德林上海素食 (尖沙咀),"中菜, 滬菜",蛋奶素,尖沙咀北京道1號7樓,"22.296150522720467, 114.17004132663864",,https://www.openrice.com/zh/hongkong/r-%E5%8A%9F%E5%BE%B7%E6%9E%97%E4%B8%8A%E6%B5%B7%E7%B4%A0%E9%A3%9F-%E5%B0%96%E6%B2%99%E5%92%80-%E6%BB%AC%E8%8F%9C-%E4%B8%8A%E6%B5%B7-%E7%B4%A0%E9%A3%9F-r1752,23127800,
九龍,尖沙咀,Nuttea,台式飲品,純素,尖沙咀彌敦道132號美麗華廣場1期1樓108A號舖,"22.300668907966998, 114.17211620123605",,https://www.openrice.com/zh/hongkong/r-nuttea-%E5%B0%96%E6%B2%99%E5%92%80-%E5%8F%B0%E7%81%A3%E8%8F%9C-%E6%9E%9C%E6%B1%81-r748553,52665341,
九龍,尖沙咀,活蘭印度素食 Woodlands Indian Vegetarian Restaurant,印度菜,蛋奶素,尖沙咀麼地道62號永安廣場UG 16-17號舖,"22.296879687003855, 114.1763652969431",,https://www.openrice.com/zh/hongkong/r-woodlands-indian-vegetarian-restaurant-tsim-sha-tsui-indian-meatless-menu-r21500,23693718,
九龍,尖沙咀,新意達 Sangeetha Vegetarian Restaurant,印度菜,蛋奶素,"尖沙咀麼地道62號永安廣場UG樓1-5,31號舖","22.296720639624922, 114.17642216640434",,https://www.openrice.com/zh/hongkong/r-sangeetha-vegetarian-restaurant-tsim-sha-tsui-indian-vegetarian-r184082,26402123,
九龍,尖沙咀,鄭​師姐泰式素食私房菜,"泰國菜, 私房菜",蛋奶素,尖沙咀麼地道16號半島大廈8樓E座,"22.297023639172522, 114.17336449524011",,https://www.openrice.com/zh/hongkong/r-%E9%84%AD-%E5%B8%AB%E5%A7%90%E6%B3%B0%E5%BC%8F%E7%B4%A0%E9%A3%9F%E7%A7%81%E6%88%BF%E8%8F%9C-%E5%B0%96%E6%B2%99%E5%92%80-%E6%B8%AF%E5%BC%8F-%E7%B4%A0%E9%A3%9F-r161870,27804339,
九龍,尖沙咀,慈素小聚,"中菜, 粵菜",蛋奶素,尖沙咀麼地道30號Mody House 8樓,"22.297102579041077, 114.17446146886",,https://www.openrice.com/zh/hongkong/r-%E6%85%88%E7%B4%A0%E5%B0%8F%E8%81%9A-%E5%B0%96%E6%B2%99%E5%92%80-%E7%B2%B5%E8%8F%9C-%E5%BB%A3%E6%9D%B1-%E6%B9%AF%E5%93%81-r801663,51220223,
九龍,尖沙咀,野玩田店 Something Wild - The Farms ,西式,蛋奶素,尖沙咀彌敦道63號iSQUARE國際廣場3樓307號舖,"22.29723343885941, 114.1719173529118",,https://www.openrice.com/zh/hongkong/r-%E9%87%8E%E7%8E%A9%E7%94%B0%E5%BA%97-%E5%B0%96%E6%B2%99%E5%92%80-%E8%A5%BF%E5%BC%8F-%E6%B2%99%E5%BE%8B-r698279,37554899,
九龍,尖沙咀,Branto 印度素食餐廳,印度菜,蛋奶素,尖沙咀樂道9號1樓,"22.29722586550622, 114.17146293756859",,https://www.openrice.com/zh/hongkong/r-branto-%E5%8D%B0%E5%BA%A6%E7%B4%A0%E9%A3%9F%E9%A4%90%E5%BB%B3-%E5%B0%96%E6%B2%99%E5%92%80-%E5%8D%B0%E5%BA%A6%E8%8F%9C-%E7%B4%A0%E9%A3%9F-r10437,23668171,
九龍,尖沙咀,每日 Everyday,自助餐,蛋奶素,尖沙咀山林道10-12號山林閣地舖,"22.302732870400977, 114.17275532220717",,https://www.openrice.com/zh/hongkong/r-%E6%AF%8F%E6%97%A5-%E5%B0%96%E6%B2%99%E5%92%80-%E5%A4%9A%E5%9C%8B%E8%8F%9C-%E6%B2%99%E5%BE%8B-r584611,25702266,
九龍,尖沙咀,雅 ‧悠蔬食,多國菜,蛋奶素,尖沙咀金馬倫道48號中國保險大廈3樓B號舖,"22.299123986738913, 114.17494649500252",,https://www.openrice.com/zh/hongkong/r-%E9%9B%85-%E6%82%A0%E8%94%AC%E9%A3%9F-%E5%B0%96%E6%B2%99%E5%92%80-%E5%A4%9A%E5%9C%8B%E8%8F%9C-%E7%B4%A0%E9%A3%9F-r513285,37065827,
九龍,尖沙咀,同德素食,"中菜, 粵菜",蛋奶素,尖沙咀寶勒巷10號1樓,"22.29868494906711, 114.17445008569855",,https://www.openrice.com/zh/hongkong/r-%E5%90%8C%E5%BE%B7%E7%B4%A0%E9%A3%9F-%E5%B0%96%E6%B2%99%E5%92%80-%E7%B2%B5%E8%8F%9C-%E5%BB%A3%E6%9D%B1-%E7%B4%A0%E9%A3%9F-r528136,28020882,
九龍,尖沙咀,Kailash Parbat,印度菜,蛋奶素,尖沙咀寶勒巷3號萬事昌廣場3樓302室,"22.29841966737484, 114.1742863656605",,https://www.openrice.com/zh/hongkong/r-kailash-parbat-%E5%B0%96%E6%B2%99%E5%92%80-%E5%8D%B0%E5%BA%A6%E8%8F%9C-%E7%B4%A0%E9%A3%9F-r571224,34285545,
九龍,尖沙咀,Moono,多國菜,純素,尖沙咀梳士巴利道18號Victoria Dockside K11 MuseaB2樓B201-C02號舖,"22.294367997625148, 114.17458086824381",,https://www.openrice.com/zh/hongkong/r-moono-%E5%B0%96%E6%B2%99%E5%92%80-%E5%A4%9A%E5%9C%8B%E8%8F%9C-%E7%B4%A0%E9%A3%9F-r713782,46242630,
九龍,尖沙咀,一森素食,港式,純素,尖沙咀北京道65-69號環球商業大廈2樓205-06室,"22.29622133006256, 114.17161456612732",,https://www.openrice.com/zh/hongkong/r-%E4%B8%80%E6%A3%AE%E7%B4%A0%E9%A3%9F-%E5%B0%96%E6%B2%99%E5%92%80-%E6%B8%AF%E5%BC%8F-%E7%B4%A0%E9%A3%9F-r789099,93224249,
九龍,尖沙咀,Peek-A-Poke,西式,蛋奶素,尖沙咀彌敦道36-44號重慶大廈地庫 Heath S01B號舖,"22.296789767153186, 114.17296416807812",,https://www.openrice.com/zh/hongkong/r-peek-a-poke-%E5%B0%96%E6%B2%99%E5%92%80-%E8%A5%BF%E5%BC%8F-%E6%B2%99%E5%BE%8B-r770734,63773073,
九龍,尖沙咀,Clean Coffee,"西式, Cafe",蛋奶素,尖沙咀彌敦道36-44號Heath地庫12號舖,"22.296464029845154, 114.17243223182228",,https://www.openrice.com/zh/hongkong/r-clean-coffee-%E5%B0%96%E6%B2%99%E5%92%80-%E8%A5%BF%E5%BC%8F-r795969,,
九龍,佐敦,普光齋,"中菜, 粵菜",蛋奶素,佐敦佐敦道13號華豐大廈地舖,"22.305882425946894, 114.17198072407635",,https://www.openrice.com/zh/hongkong/r-%E6%99%AE%E5%85%89%E9%BD%8B-%E4%BD%90%E6%95%A6-%E7%B2%B5%E8%8F%9C-%E5%BB%A3%E6%9D%B1-%E7%B4%A0%E9%A3%9F-r1866,23842833,
九龍,佐敦,蓮花健康素食,"中菜, 粵菜",蛋奶素,佐敦寧波街31號地舖,"22.306631796639927, 114.17112052081194",,https://www.openrice.com/zh/hongkong/r-%E8%93%AE%E8%8A%B1%E5%81%A5%E5%BA%B7%E7%B4%A0%E9%A3%9F-%E4%BD%90%E6%95%A6-%E7%B2%B5%E8%8F%9C-%E5%BB%A3%E6%9D%B1-%E7%B4%A0%E9%A3%9F-r544535,23287686,
九龍,佐敦,維亞軒素食 ,港式,蛋奶素,佐敦德興街13號怡興閣地舖,"22.30525395295037, 114.17224412037503",,https://www.openrice.com/zh/hongkong/r-via-vegetarian-restaurant-jordan-hong-kong-style-vegetarian-r747297,23828022,
九龍,佐敦,大中華素食,港式,蛋奶素,佐敦白加士街131-135號地下,"22.307277523863533, 114.17097962407624",,https://www.openrice.com/zh/hongkong/r-%E5%A4%A7%E4%B8%AD%E8%8F%AF%E7%B4%A0%E9%A3%9F-%E4%BD%90%E6%95%A6-%E6%B8%AF%E5%BC%8F-%E7%B4%A0%E9%A3%9F-r25363,27712393,
九龍,佐敦,三德素食館 (佐敦薈),"中菜, 粵菜",蛋奶素,佐敦彌敦道233-239號佐敦薈地下及4樓,"22.304910266906006, 114.17149269529327",,https://www.openrice.com/zh/hongkong/r-%E4%B8%89%E5%BE%B7%E7%B4%A0%E9%A3%9F%E9%A4%A8-%E4%BD%90%E6%95%A6-%E7%B2%B5%E8%8F%9C-%E5%BB%A3%E6%9D%B1-%E7%B4%A0%E9%A3%9F-r20523,36221888,
九龍,佐敦,Mayse Pizzeria,Pizza店,純素,佐敦吳松街5-11號地舖,"22.30831384234082, 114.17085483383964",,https://www.openrice.com/zh/hongkong/r-mayse-pizzeria-%E4%BD%90%E6%95%A6-%E8%A5%BF%E5%BC%8F-%E8%96%84%E9%A4%85-r821465,95352907,
九龍,油麻地,一森素食,"中菜, 粵菜",純素,油麻地窩打老道9-11號地下11B號舖,"22.313137754200476, 114.1701752141893",,https://www.openrice.com/zh/hongkong/r-%E4%B8%80%E6%A3%AE%E7%B4%A0%E9%A3%9F-%E6%B2%B9%E9%BA%BB%E5%9C%B0-%E7%B2%B5%E8%8F%9C-%E5%BB%A3%E6%9D%B1-%E7%B4%A0%E9%A3%9F-r526418,93082289,
九龍,旺角,無肉食（旺角）,自助餐,蛋奶素,旺角洗衣街88號2樓,"22.319579531387767, 114.17190360052233",,https://www.openrice.com/zh/hongkong/r-%E7%84%A1%E8%82%89%E9%A3%9F-%E6%97%BA%E8%A7%92-%E6%B8%AF%E5%BC%8F-%E7%B4%A0%E9%A3%9F-r557528,28892938,
九龍,太子,大自然素食（太子）,"中菜, 粵菜",蛋奶素,太子彌敦道始創中心3樓335號舖,"22.32234860135042, 114.16920743756934",,https://www.openrice.com/zh/hongkong/r-%E5%A4%A7%E8%87%AA%E7%84%B6%E7%B4%A0%E9%A3%9F-%E5%A4%AA%E5%AD%90-%E6%B8%AF%E5%BC%8F-%E7%B4%A0%E9%A3%9F-r17714,21481163,
九龍,太子,百寶齋廚,"中菜, 粵菜",蛋奶素,太子彌敦道780號地舖,"22.32577554701965, 114.16822959524121",,https://www.openrice.com/zh/hongkong/r-%E7%99%BE%E5%AF%B6%E9%BD%8B%E5%BB%9A-%E6%97%BA%E8%A7%92-%E6%B8%AF%E5%BC%8F-%E7%B4%A0%E9%A3%9F-r473548,23802681,
九龍,太子,「迆」雪糕專門店,雪糕店,蛋奶素,深水埗界限街10F號南楓樓地下5號舖,"22.326372823412445, 114.16437659709179",,https://www.openrice.com/zh/hongkong/r-%E3%80%8C%E8%BF%86%E3%80%8D%E9%9B%AA%E7%B3%95%E5%B0%88%E9%96%80%E5%BA%97-%E6%B7%B1%E6%B0%B4%E5%9F%97-%E6%B8%AF%E5%BC%8F-%E9%9B%AA%E7%B3%95-%E4%B9%B3%E9%85%AA-r726502,53455954,
九龍,石硤尾,晶晶素食店,"中菜, 粵菜",蛋奶素,石硤尾偉智里1-3號白田購物中心地下71號舖,"22.334997745318244, 114.16701651373708",,https://www.openrice.com/zh/hongkong/r-%E6%99%B6%E6%99%B6%E7%B4%A0%E9%A3%9F%E5%BA%97-%E7%9F%B3%E7%A1%A4%E5%B0%BE-%E7%B2%B5%E8%8F%9C-%E5%BB%A3%E6%9D%B1-%E7%84%A1%E8%82%89%E9%A4%90%E5%96%AE-r754357,46146544,
九龍,深水埗,天譽素食,"中菜, 粵菜",蛋奶素,深水埗元州街141號地舖,"22.334209259617715, 114.1609556817488",,https://www.openrice.com/zh/hongkong/r-%E5%A4%A9%E8%AD%BD%E7%B4%A0%E9%A3%9F-%E6%B7%B1%E6%B0%B4%E5%9F%97-%E7%B2%B5%E8%8F%9C-%E5%BB%A3%E6%9D%B1-%E7%B4%A0%E9%A3%9F-r55643,27081228,
九龍,深水埗,善膳坊,港式,蛋奶素,深水埗元州街26號地舖,"22.332374538094925, 114.16379518174877",,https://www.openrice.com/zh/hongkong/r-%E5%96%84%E8%86%B3%E5%9D%8A-%E6%B7%B1%E6%B0%B4%E5%9F%97-%E6%B8%AF%E5%BC%8F-%E7%B4%A0%E9%A3%9F-r749553,92217166,
九龍,深水埗,素食工房,三餸飯,蛋奶素,深水埗欽州街37號西九龍中心8樓美食廣場8F06號舖,"22.33124820625262, 114.15975420819571",,https://www.openrice.com/zh/hongkong/r-%E7%B4%A0%E9%A3%9F%E5%B7%A5%E6%88%BF-%E6%B7%B1%E6%B0%B4%E5%9F%97-%E6%B8%AF%E5%BC%8F-%E7%B4%A0%E9%A3%9F-r699659,63545263,
九龍,深水埗,知味駅,日本菜,蛋奶素,深水埗欽州街37號西九龍中心8樓美食廣場33號舖,"22.33131031216891, 114.1597625375699",,https://www.openrice.com/zh/hongkong/r-%E7%9F%A5%E5%91%B3%E9%A7%85-%E6%B7%B1%E6%B0%B4%E5%9F%97-%E6%97%A5%E6%9C%AC%E8%8F%9C-%E7%B4%A0%E9%A3%9F-r675330,94585190,
九龍,深水埗,素年 Years,"多國菜, Cafe",純素,深水埗福華街191-199號福隆大廈1號地舖,"22.332731546259446, 114.16075629407801",,https://www.openrice.com/zh/hongkong/r-%E7%B4%A0%E5%B9%B4-%E6%B7%B1%E6%B0%B4%E5%9F%97-%E8%A5%BF%E5%BC%8F-%E7%B4%A0%E9%A3%9F-r616992,63383719,
九龍,深水埗,素年 The Park,"多國菜, Cafe",純素,深水埗汝州街132號地舖,"22.32831214128972, 114.16404319524122",,https://www.openrice.com/zh/hongkong/r-%E7%B4%A0%E5%B9%B4-%E6%B7%B1%E6%B0%B4%E5%9F%97-%E8%A5%BF%E5%BC%8F-%E7%B4%A0%E9%A3%9F-r671080,53364000,
九龍,深水埗,悅素 Joys Cafe,"多國菜, Cafe",純素,深水埗福華街7號地舖,"22.327816799645213, 114.1669161584624",,https://www.openrice.com/zh/hongkong/r-%E6%82%85%E7%B4%A0-%E6%B7%B1%E6%B0%B4%E5%9F%97-%E8%A5%BF%E5%BC%8F-%E7%84%A1%E8%82%89%E9%A4%90%E5%96%AE-r793563,36194840,
九龍,深水埗,新聚寶素食,"中菜, 粵菜",蛋奶素,深水埗大埔道79-85號民安大廈地下85號舖,"22.33242468087526, 114.16400724122778",,https://www.openrice.com/zh/hongkong/r-%E6%96%B0%E8%81%9A%E5%AF%B6%E7%B4%A0%E9%A3%9F-%E6%B7%B1%E6%B0%B4%E5%9F%97-%E7%B2%B5%E8%8F%9C-%E5%BB%A3%E6%9D%B1-%E7%B4%A0%E9%A3%9F-r145684,27082728,
九龍,深水埗,黑窗里,"多國菜, Cafe",蛋奶素,深水埗大埔道79-85號民安大廈地舖,"22.332590334273597, 114.16396636643508",,https://www.openrice.com/zh/hongkong/r-%E9%BB%91%E7%AA%97%E9%87%8C-%E6%B7%B1%E6%B0%B4%E5%9F%97-%E5%A4%9A%E5%9C%8B%E8%8F%9C-%E7%B4%A0%E9%A3%9F-r719224,97478914,
九龍,長沙灣,Café Imagine,"多國菜, Cafe",純素,長沙灣順寧道338號豐盛居商場地舖,"22.34010511778433, 114.15550414218994",,https://www.openrice.com/zh/hongkong/r-cafe-imagine-%E9%95%B7%E6%B2%99%E7%81%A3-%E6%B8%AF%E5%BC%8F-%E7%B4%A0%E9%A3%9F-r49452,22816020,
九龍,荔枝角 ,素一素,"中菜, 粵菜",蛋奶素,荔枝角青山道489-491號香港工業中心C座地庫C2號舖,"22.337625067450873, 114.14715457934517",,https://www.openrice.com/zh/hongkong/r-%E7%B4%A0%E4%B8%80%E7%B4%A0-%E8%8D%94%E6%9E%9D%E8%A7%92-%E6%B8%AF%E5%BC%8F-%E7%84%A1%E8%82%89%E9%A4%90%E5%96%AE-r792423,37956070,
九龍,荔枝角 ,清心齋,"中菜, 粵菜",蛋奶素,荔枝角荔枝角道833號昇悅居昇悅商場1樓125號舖,"22.334593093902523, 114.14904304979176",,https://www.openrice.com/zh/hongkong/r-%E6%B8%85%E5%BF%83%E9%BD%8B-%E8%8D%94%E6%9E%9D%E8%A7%92-%E7%B2%B5%E8%8F%9C-%E5%BB%A3%E6%9D%B1-%E7%B4%A0%E9%A3%9F-r758757,,
九龍,大角咀,煮植,多國菜,純素,大角咀海庭道8號富榮花園第一期地下43A號舖,"22.314050839187097, 114.16468013941972",,https://www.openrice.com/zh/hongkong/r-%E7%85%AE%E6%A4%8D-%E5%A4%A7%E8%A7%92%E5%92%80-%E5%A4%9A%E5%9C%8B%E8%8F%9C-%E7%B4%A0%E9%A3%9F-r775781,55239163,
九龍,大角咀,素來素往,自助餐,蛋奶素,大角咀博文街28-38號地下6號舖,"22.319766605208493, 114.16079009524104",,https://www.openrice.com/zh/hongkong/r-%E7%B4%A0%E4%BE%86%E7%B4%A0%E5%BE%80-%E5%A4%A7%E8%A7%92%E5%92%80-%E5%A4%9A%E5%9C%8B%E8%8F%9C-%E7%B4%A0%E9%A3%9F-r753767,94492555,
九龍,紅磡,金佛園素食,"中菜, 粵菜",蛋奶素,紅磡差館里41-43號地下,"22.308226129296983, 114.18554768239328",,https://www.openrice.com/zh/hongkong/r-%E9%87%91%E4%BD%9B%E5%9C%92%E7%B4%A0%E9%A3%9F-%E7%B4%85%E7%A3%A1-%E6%B8%AF%E5%BC%8F-%E7%B4%A0%E9%A3%9F-r725026,22154882,
九龍,黃埔,素年 Be,"多國菜, Cafe",純素,紅磡黃埔天地百寶坊(第3期)地下G27號舖,"22.304804527556314, 114.1866017240762",,https://www.openrice.com/zh/hongkong/r-%E7%B4%A0%E5%B9%B4-%E7%B4%85%E7%A3%A1-%E8%A5%BF%E5%BC%8F-%E7%B4%A0%E9%A3%9F-r712721,93663261,
九龍,黃埔,巧饍坊,"中菜, 粵菜",蛋奶素,紅磡黃埔天地美食坊(第8期)1樓106-107號舖,"22.304893885391067, 114.19047125106833",,https://www.openrice.com/zh/hongkong/r-%E5%B7%A7%E9%A5%8D%E5%9D%8A-%E7%B4%A0%E9%A3%9F-%E7%B4%85%E7%A3%A1-%E4%BA%AC%E5%B7%9D%E6%BB%AC-%E7%B4%A0%E9%A3%9F-r33355,31522162,
九龍,黃大仙,大自然素食（黃大仙）,"中菜, 粵菜",蛋奶素,黃大仙現崇山商場1樓102-103號舖,"22.340282403825427, 114.19681627989841",,https://www.openrice.com/zh/hongkong/r-%E5%A4%A7%E8%87%AA%E7%84%B6%E7%B4%A0%E9%A3%9F-%E9%BB%83%E5%A4%A7%E4%BB%99-%E6%B8%AF%E5%BC%8F-%E7%B4%A0%E9%A3%9F-r117648,28873363,
九龍,黃大仙,源記齋,港式,蛋奶素,黃大仙銀鳳街1號地下E號舖,"22.34419845014583, 114.19787098271738",,https://www.openrice.com/zh/hongkong/r-%E6%BA%90%E8%A8%98%E9%BD%8B-%E9%BB%83%E5%A4%A7%E4%BB%99-%E6%B8%AF%E5%BC%8F-%E7%B4%A0%E9%A3%9F-r801973,94487161,
九龍,黃大仙,健康齋廚,港式,蛋奶素,黃大仙飛鳳街34號地舖,"22.34381418460536, 114.1964172175659",,https://www.openrice.com/zh/hongkong/r-%E5%81%A5%E5%BA%B7%E9%BD%8B%E5%BB%9A-%E9%BB%83%E5%A4%A7%E4%BB%99-%E6%B8%AF%E5%BC%8F-%E7%B4%A0%E9%A3%9F-r543465,67330283,
九龍,鑽石山,龍門樓 - 志蓮素齋,"中菜, 粵菜",蛋奶素,鑽石山鳳德道60號南蓮園池龍門樓,"22.33911674725738, 114.20586220873409",,https://www.openrice.com/zh/hongkong/r-%E9%BE%8D%E9%96%80%E6%A8%93-%E5%BF%97%E8%93%AE%E7%B4%A0%E9%BD%8B-%E9%91%BD%E7%9F%B3%E5%B1%B1-%E7%B2%B5%E8%8F%9C-%E5%BB%A3%E6%9D%B1-%E7%B4%A0%E9%A3%9F-r17526,36589388,
九龍,新蒲崗,Nuttea,台式飲品,純素,新蒲崗大有街3號萬迪廣場1樓D號舖,"22.338499181254523, 114.19907269043439",,https://www.openrice.com/zh/hongkong/r-nuttea-%E6%96%B0%E8%92%B2%E5%B4%97-%E5%8F%B0%E7%81%A3%E8%8F%9C-%E6%9E%9C%E6%B1%81-r610895,60158851,
九龍,新蒲崗,從心素食,"中菜, 粵菜",蛋奶素,新蒲崗太子道東638號Mikiki1樓107號舖,"22.333672928806013, 114.19650221534323",,https://www.openrice.com/zh/hongkong/r-%E5%BE%9E%E5%BF%83%E7%B4%A0%E9%A3%9F-%E6%96%B0%E8%92%B2%E5%B4%97-%E7%B2%B5%E8%8F%9C-%E5%BB%A3%E6%9D%B1-%E7%B4%A0%E9%A3%9F-r552963,36184826,
九龍,新蒲崗,泰好篤篤餐館,泰國菜,蛋奶素,新蒲崗洐慶街33號地下,"22.3352690855467, 114.19477208002255",,https://www.openrice.com/zh/hongkong/r-%E6%B3%B0%E5%A5%BD%E7%AF%A4%E7%AF%A4%E9%A4%90%E9%A4%A8-%E6%96%B0%E8%92%B2%E5%B4%97-%E6%B3%B0%E5%9C%8B%E8%8F%9C-%E7%84%A1%E8%82%89%E9%A4%90%E5%96%AE-r504667,22905232,
九龍,新蒲崗,愛家素食,港式,純素,新蒲崗爵祿街33號 PORT 33 1樓103A號舖,"22.335388128915326, 114.19778018363192",,https://www.openrice.com/zh/hongkong/r-%E6%84%9B%E5%AE%B6%E7%B4%A0%E9%A3%9F-%E6%96%B0%E8%92%B2%E5%B4%97-%E6%B8%AF%E5%BC%8F-%E7%84%A1%E8%82%89%E9%A4%90%E5%96%AE-r614688,27970001,
九龍,新蒲崗,MUM 日常野菜料理,"多國菜, Cafe",蛋奶素,新蒲崗仁愛街34號地下B號舖,"22.334466327888848, 114.19489936683681",,https://www.openrice.com/zh/hongkong/r-mum-%E6%97%A5%E5%B8%B8%E9%87%8E%E8%8F%9C%E6%96%99%E7%90%86-%E6%96%B0%E8%92%B2%E5%B4%97-%E6%B8%AF%E5%BC%8F-%E7%84%A1%E8%82%89%E9%A4%90%E5%96%AE-r719730,54007869,
九龍,九龍城,泰國素食,泰國菜,蛋奶素,九龍城城南道28號地下,"22.329351169138043, 114.19110387989815",,https://www.openrice.com/zh/hongkong/r-%E6%B3%B0%E5%9C%8B%E7%B4%A0%E9%A3%9F-%E4%B9%9D%E9%BE%8D%E5%9F%8E-%E6%B3%B0%E5%9C%8B%E8%8F%9C-%E7%B4%A0%E9%A3%9F-r579005,61537421,
九龍,九龍城,蓮花健康素食,"中菜, 粵菜",蛋奶素,九龍城福佬村道39號地舖,"22.328732440533496, 114.18747458922431",,https://www.openrice.com/zh/hongkong/r-%E8%93%AE%E8%8A%B1%E5%81%A5%E5%BA%B7%E7%B4%A0%E9%A3%9F-%E4%B9%9D%E9%BE%8D%E5%9F%8E-%E7%B2%B5%E8%8F%9C-%E5%BB%A3%E6%9D%B1-%E7%B4%A0%E9%A3%9F-r31908,23828290,
九龍,土瓜灣,早稻石磨腸粉,"中菜, 粵菜",非素食,土瓜灣炮仗街46-48號地下E號舖,"22.318808444939926, 114.18863610064383",,https://www.openrice.com/zh/hongkong/r-%E6%97%A9%E7%A8%BB%E7%9F%B3%E7%A3%A8%E8%85%B8%E7%B2%89-%E5%9C%9F%E7%93%9C%E7%81%A3-%E7%B2%B5%E8%8F%9C-%E5%BB%A3%E6%9D%B1-r678906,68591069,不定期放假，建議去前打電話確認開店
九龍,土瓜灣,圓善素食,"中菜, 粵菜",蛋奶素,土瓜灣馬頭圍道434號地舖,"22.31948416559045, 114.18740455514006",,https://www.openrice.com/zh/hongkong/r-%E5%9C%93%E5%96%84%E7%B4%A0%E9%A3%9F-%E5%9C%9F%E7%93%9C%E7%81%A3-%E7%B2%B5%E8%8F%9C-%E5%BB%A3%E6%9D%B1-%E7%B4%A0%E9%A3%9F-r552830,26012801,
九龍,九龍灣,Nuttea,台式飲品,純素,九龍灣宏冠道6號鴻力工業中心B座地下B1B1號舖,"22.32293402528368, 114.20880128174838",,https://www.openrice.com/zh/hongkong/r-nuttea-%E4%B9%9D%E9%BE%8D%E7%81%A3-%E5%8F%B0%E7%81%A3%E8%8F%9C-%E6%9E%9C%E6%B1%81-r677934,64140831,
九龍,九龍灣,La Fresco Veggie 清新素食咖啡店,港式,蛋奶素,九龍灣常悅道9道企業廣場1期 1樓2號舖,"22.321982502401738, 114.20799487989791",,https://www.openrice.com/zh/hongkong/r-%E6%B8%85%E6%96%B0%E7%B4%A0%E9%A3%9F%E5%92%96%E5%95%A1%E5%BA%97-%E4%B9%9D%E9%BE%8D%E7%81%A3-%E6%B8%AF%E5%BC%8F-%E6%B2%99%E5%BE%8B-r144886,28683266,
九龍,九龍灣,滴水坊,"中菜, 粵菜",蛋奶素,九龍灣宏光道1號億京中心地舖,"22.321249648015957, 114.2061959714751",,https://www.openrice.com/zh/hongkong/r-%E6%BB%B4%E6%B0%B4%E5%9D%8A-%E4%B9%9D%E9%BE%8D%E7%81%A3-%E6%B8%AF%E5%BC%8F-%E7%B4%A0%E9%A3%9F-r48001,31109007,
九龍,九龍灣,歡樂食堂,港式,非素食,九龍灣宏光道80號麗晶商場地下G2A號舖,"22.32939065554151, 114.20599398415382",,https://www.openrice.com/zh/hongkong/r-%E6%AD%A1%E6%A8%82%E9%A3%9F%E5%A0%82-%E4%B9%9D%E9%BE%8D%E7%81%A3-%E6%B8%AF%E5%BC%8F-r755073,23669893,
九龍,牛頭角,裕德素食,港式,蛋奶素,牛頭角定富街30號地下,"22.317352931769253, 114.21592730746636",,https://www.openrice.com/zh/hongkong/r-%E8%A3%95%E5%BE%B7%E7%B4%A0%E9%A3%9F-%E7%89%9B%E9%A0%AD%E8%A7%92-%E6%B8%AF%E5%BC%8F-%E7%B4%A0%E9%A3%9F-r15857,23318596,
九龍,觀塘,敬一素食私房菜,"中菜, 川菜",純素,觀塘偉業街223-231號宏利金融中心A座1樓7室,"22.307974548690723, 114.22361449816076",,https://www.openrice.com/zh/hongkong/r-%E6%95%AC%E4%B8%80%E7%B4%A0%E9%A3%9F%E7%A7%81%E6%88%BF%E8%8F%9C-%E8%A7%80%E5%A1%98-%E5%B7%9D%E8%8F%9C-%E5%9B%9B%E5%B7%9D-%E7%B4%A0%E9%A3%9F-r784229,54077589,
九龍,觀塘,一素食譜,港式,純素,觀塘成業街7號東廣場地下G57號舖,"22.310956493698, 114.22645048649463",,https://www.openrice.com/zh/hongkong/r-%E4%B8%80%E7%B4%A0%E9%A3%9F%E8%AD%9C-%E8%A7%80%E5%A1%98-%E6%B8%AF%E5%BC%8F-%E7%B4%A0%E9%A3%9F-r572166?_sUrl=https%3A%2F%2Fs.openrice.com%2FQrbS01hi800~drFY0lXan,55394088,
九龍,觀塘,紫竹林素食,"中菜, 粵菜",蛋奶素,觀塘成業街19-21號成業工業大廈1樓03室,"22.310277745090914, 114.22712089524063",,https://www.openrice.com/zh/hongkong/r-%E7%B4%AB%E7%AB%B9%E6%9E%97%E7%B4%A0%E9%A3%9F-%E8%A7%80%E5%A1%98-%E6%B8%AF%E5%BC%8F-%E7%B4%A0%E9%A3%9F-r513243,35685130,
九龍,觀塘,素心事 Sow Something,"多國菜, Cafe",蛋奶素,觀塘成業街19-21號成業工業大廈1樓4室,"22.310291654780745, 114.2270730539227",,https://www.openrice.com/zh/hongkong/r-%E7%B4%A0%E5%BF%83%E4%BA%8B-%E8%A7%80%E5%A1%98-%E5%A4%9A%E5%9C%8B%E8%8F%9C-%E7%B4%A0%E9%A3%9F-r783541,65920365,
九龍,觀塘,家味蔬食,"中菜, 粵菜",蛋奶素,觀塘成業街19-21號成業工業大廈5樓29號舖,"22.3101161672464, 114.22711077382458",,https://www.openrice.com/zh/hongkong/r-%E5%AE%B6%E5%91%B3%E8%94%AC%E9%A3%9F-%E8%A7%80%E5%A1%98-%E7%B2%B5%E8%8F%9C-%E5%BB%A3%E6%9D%B1-%E7%B4%A0%E9%A3%9F-r732275,68267833,
九龍,觀塘,一素食譜,港式,蛋奶素,觀塘成業街7號東廣場寧晉中心地下57號舖,"22.310972599190105, 114.2264493521339",,https://www.openrice.com/zh/hongkong/r-%E4%B8%80%E7%B4%A0%E9%A3%9F%E8%AD%9C-%E8%A7%80%E5%A1%98-%E6%B8%AF%E5%BC%8F-%E7%B4%A0%E9%A3%9F-r572166,55394088,
九龍,觀塘,Sujata Café,"多國菜, Cafe",蛋奶素,觀塘成業街11-13號華成工商中心9樓907號舖,"22.310687039683632, 114.2265577811886",,https://www.openrice.com/zh/hongkong/r-sujata-cafe-%E8%A7%80%E5%A1%98-%E5%A4%9A%E5%9C%8B%E8%8F%9C-%E7%B4%A0%E9%A3%9F-r552739,27608003,
九龍,觀塘,福德素食小廚,港式,蛋奶素,觀塘駿業街67號駿業街熟食市場2樓,"22.31179971500676, 114.22300139566572",,https://www.openrice.com/zh/hongkong/r-%E7%A6%8F%E5%BE%B7%E7%B4%A0%E9%A3%9F%E5%B0%8F%E5%BB%9A-%E8%A7%80%E5%A1%98-%E6%B8%AF%E5%BC%8F-%E7%B4%A0%E9%A3%9F-r48640,93651418,
九龍,觀塘,愛家，愛便當,"中菜, 川菜",蛋奶素,觀塘鴻圖道76號聯運工業大廈地下D號舖,"22.308465526816924, 114.2238946970023",,https://www.openrice.com/zh/hongkong/r-%E6%84%9B%E5%AE%B6-%E6%84%9B%E4%BE%BF%E7%95%B6-%E8%A7%80%E5%A1%98-%E6%97%A5%E6%9C%AC%E8%8F%9C-%E7%B4%A0%E9%A3%9F-r794372,97991916,
九龍,觀塘,Sow Vegan,西式,純素,觀塘鴻圖道43號鴻達工業大廈11樓1102室,"22.311909092426834, 114.22109273374961",,https://www.openrice.com/zh/hongkong/r-sow-vegan-%E8%A7%80%E5%A1%98-%E8%A5%BF%E5%BC%8F-%E6%B2%99%E5%BE%8B-r560639,90293009,
九龍,觀塘,寶光齋素食館,粵菜,蛋奶素,觀塘崇仁街29號安順大廈地舖,"22.316216176794374, 114.22412373249851",,https://www.openrice.com/zh/hongkong/r-%E5%AF%B6%E5%85%89%E9%BD%8B%E7%B4%A0%E9%A3%9F%E9%A4%A8-%E8%A7%80%E5%A1%98-%E7%B2%B5%E8%8F%9C-%E5%BB%A3%E6%9D%B1-%E7%B4%A0%E9%A3%9F-r173,23444577,
九龍,觀塘,五福素食館,粵菜,純素,觀塘巧明街99號巧明工廠大廈地下11室,"22.312809897227453, 114.22340696283442",,https://www.openrice.com/zh/hongkong/r-%E4%BA%94%E7%A6%8F%E7%B4%A0-%E8%A7%80%E5%A1%98-%E6%BB%87%E8%8F%9C-%E9%9B%B2%E5%8D%97-r809505,65868047,
九龍,觀塘,EFG Eat for Green,西式,非素食,觀塘開源道60號駱駝漆大廈第三座3樓P室,"22.31014677141835, 114.22507058388389",,https://www.openrice.com/zh/hongkong/r-efg-eat-for-green-%E8%A7%80%E5%A1%98-%E8%A5%BF%E5%BC%8F-%E7%84%A1%E8%82%89%E9%A4%90%E5%96%AE-r746157,70742818,
九龍,藍田,天天素食,粵菜,純素,藍田匯景商場3樓17-18號舖,"22.30744106393968, 114.23340645054999",,https://www.openrice.com/zh/hongkong/r-%E5%A4%A9%E5%A4%A9%E7%B4%A0%E9%A3%9F-%E8%97%8D%E7%94%B0-%E7%B2%B5%E8%8F%9C-%E5%BB%A3%E6%9D%B1-%E7%B4%A0%E9%A3%9F-r13416,23468396,
九龍,鯉魚門,天天素食,粵菜,純素,鯉魚門鯉魚門路80號鯉魚門廣場1樓116號舖,"22.29641394443872, 114.23941951545329",,https://www.openrice.com/zh/hongkong/r-%E5%A4%A9%E5%A4%A9%E7%B4%A0%E9%A3%9F-%E9%AF%89%E9%AD%9A%E9%96%80-%E7%B2%B5%E8%8F%9C-%E5%BB%A3%E6%9D%B1-%E7%B4%A0%E9%A3%9F-r599468,21105056,
新界,將軍澳,無肉食（將軍澳）,自助餐,蛋奶素,將軍澳唐賢街19號天晉匯II期地下20號舖,"22.310214373109172, 114.26100847598508",,https://www.openrice.com/zh/hongkong/r-%E7%84%A1%E8%82%89%E9%A3%9F-%E5%B0%87%E8%BB%8D%E6%BE%B3-%E6%B8%AF%E5%BC%8F-%E7%84%A1%E8%82%89%E9%A4%90%E5%96%AE-r740061,26686658,
新界,將軍澳,從心素食 Heartful Veggie,"中菜, 粵菜",蛋奶素,將軍澳重華路8號東港城2樓263C號舖,"22.317172148773587, 114.26530051747348",,https://www.openrice.com/zh/hongkong/r-%E5%BE%9E%E5%BF%83%E7%B4%A0%E9%A3%9F-%E5%B0%87%E8%BB%8D%E6%BE%B3-%E7%B2%B5%E8%8F%9C-%E5%BB%A3%E6%9D%B1-%E7%B4%A0%E9%A3%9F-r699701,23656788,
新界,將軍澳,清心齋,"中菜, 粵菜",蛋奶素,將軍澳坑口常寧路2號TKO Gateway地下Food Lane EF11號舖,"22.317473965053466, 114.26629431654462",,https://www.openrice.com/zh/hongkong/r-%E6%B8%85%E5%BF%83%E9%BD%8B-%E5%B0%87%E8%BB%8D%E6%BE%B3-%E7%B2%B5%E8%8F%9C-%E5%BB%A3%E6%9D%B1-%E7%B4%A0%E9%A3%9F-r568379,,
新界,將軍澳,清心齋,"中菜, 粵菜",蛋奶素,將軍澳欣景路8號新都城中心二期1樓1021號舖,"22.323196030792072, 114.2577936042632",,https://www.openrice.com/zh/hongkong/r-%E6%B8%85%E5%BF%83%E9%BD%8B-%E5%B0%87%E8%BB%8D%E6%BE%B3-%E7%B2%B5%E8%8F%9C-%E5%BB%A3%E6%9D%B1-%E7%B4%A0%E9%A3%9F-r757115,,
新界,荃灣,荃灣港安醫院餐廳,多國菜,蛋奶素,荃灣荃景圍199號港安醫院主座6樓,"22.376536323943157, 114.1040966671474",,https://www.openrice.com/zh/hongkong/r-%E8%8D%83%E7%81%A3%E6%B8%AF%E5%AE%89%E9%86%AB%E9%99%A2%E9%A4%90%E5%BB%B3-%E8%8D%83%E7%81%A3-%E5%A4%9A%E5%9C%8B%E8%8F%9C-%E7%84%A1%E8%82%89%E9%A4%90%E5%96%AE-r42795,22756690,
新界,荃灣,Green Common 如心廣場二期店,多國菜,純素,荃灣大河道 98 號如心廣場二期 1 樓 101 號舖,"22.369404230966047, 114.11127715355923",,https://www.openrice.com/zh/hongkong/r-green-common-%E8%8D%83%E7%81%A3-%E5%A4%9A%E5%9C%8B%E8%8F%9C-%E7%B4%A0%E9%A3%9F-r678568,26620553,
新界,荃灣,無肉食（荃灣）,自助餐,蛋奶素,荃灣大河道98號如心廣場二期2樓213號舖,"22.373326807921195, 114.11125279818857",,https://www.openrice.com/zh/hongkong/r-%E7%84%A1%E8%82%89%E9%A3%9F-%E8%8D%83%E7%81%A3-%E6%B8%AF%E5%BC%8F-%E7%B4%A0%E9%A3%9F-r664019,23369818,
新界,荃灣,大自然素食（荃灣）,"中菜, 粵菜",蛋奶素,荃灣廣場4樓433號舖,"22.37081182885849, 114.1118027664069",,https://www.openrice.com/zh/hongkong/r-%E5%A4%A7%E8%87%AA%E7%84%B6%E7%B4%A0%E9%A3%9F-%E8%8D%83%E7%81%A3-%E6%B8%AF%E5%BC%8F-%E7%B4%A0%E9%A3%9F-r48978,21481819,
新界,荃灣,Nuttea,台式飲品,純素,荃灣大河道88號灣景廣場購物中心AEON超級市場地下G15號舖,"22.37004191583233, 114.111863937571",,https://www.openrice.com/zh/hongkong/r-nuttea-%E8%8D%83%E7%81%A3-%E5%8F%B0%E7%81%A3%E8%8F%9C-%E6%9E%9C%E6%B1%81-r733427,,
新界,荃灣,東方小祇園,"中菜, 粵菜",蛋奶素,荃灣沙咀道254-276號廣發大廈地下4B號舖,"22.369762427199912, 114.11629731858706",,https://www.openrice.com/zh/hongkong/r-%E6%9D%B1%E6%96%B9%E5%B0%8F%E7%A5%87%E5%9C%92-%E8%8D%83%E7%81%A3-%E7%B2%B5%E8%8F%9C-%E5%BB%A3%E6%9D%B1-%E7%B4%A0%E9%A3%9F-r754343,35687452,
新界,荃灣,寶蓮素食,自助餐,蛋奶素,荃灣沙咀道328號寶石大廈地下G17-G18號舖,"22.369252402891323, 114.11781946546716",,https://www.openrice.com/zh/hongkong/r-%E5%AF%B6%E8%93%AE%E7%B4%A0%E9%A3%9F-%E8%8D%83%E7%81%A3-%E7%B2%B5%E8%8F%9C-%E5%BB%A3%E6%9D%B1-%E7%B4%A0%E9%A3%9F-r780811,23223088,
新界,荃灣,翠蓮素食,"中菜, 粵菜",蛋奶素,荃灣眾安街81號地舖,"22.36925817420561, 114.11617926640672",,https://www.openrice.com/zh/hongkong/r-%E7%BF%A0%E8%93%AE%E7%B4%A0%E9%A3%9F-%E8%8D%83%E7%81%A3-%E7%B2%B5%E8%8F%9C-%E5%BB%A3%E6%9D%B1-%E7%B4%A0%E9%A3%9F-r574992,23516888,
新界,荃灣,素年 Friends,"多國菜, Cafe",純素,荃灣三陂坊20號,"22.369063939102094, 114.11672045291422",,https://www.openrice.com/zh/hongkong/r-%E7%B4%A0%E5%B9%B4-%E8%8D%83%E7%81%A3-%E8%A5%BF%E5%BC%8F-%E7%B4%A0%E9%A3%9F-r675470,52969864,
新界,荃灣,素悅軒,港式,蛋奶素,荃灣兆和街25號海晴軒15號舖,"22.372421069018813, 114.11758416640689",,https://www.openrice.com/zh/hongkong/r-%E7%B4%A0%E6%82%85%E8%BB%92-%E8%8D%83%E7%81%A3-%E6%B8%AF%E5%BC%8F-%E7%84%A1%E8%82%89%E9%A4%90%E5%96%AE-r173776,34864428,
新界,荃灣,天· 悠蔬食,多國菜,蛋奶素,荃灣楊屋道18號荃新天地2地下G08-11號舖,"22.368213489581997, 114.11474945291421",,https://www.openrice.com/zh/hongkong/r-%E5%A4%A9-%E6%82%A0%E8%94%AC%E9%A3%9F-%E8%8D%83%E7%81%A3-%E5%A4%9A%E5%9C%8B%E8%8F%9C-%E7%B4%A0%E9%A3%9F-r654111,26361808,
新界,荃灣,素食新一代,"中菜, 粵菜",蛋奶素,荃灣西樓角路202-216號荃昌中心昌安大廈1樓52&55號舖,"22.371521842407542, 114.11985379524276",,https://www.openrice.com/zh/hongkong/r-%E7%B4%A0%E9%A3%9F%E6%96%B0%E4%B8%80%E4%BB%A3-%E8%8D%83%E7%81%A3-%E7%B2%B5%E8%8F%9C-%E5%BB%A3%E6%9D%B1-%E7%B4%A0%E9%A3%9F-r15491,24112407,
新界,荃灣,妙法齋,"中菜, 粵菜",蛋奶素,荃灣河背街79號地舖,"22.368460596408045, 114.11648972210732",,https://www.openrice.com/zh/hongkong/r-%E5%A6%99%E6%B3%95%E9%BD%8B-%E8%8D%83%E7%81%A3-%E7%B2%B5%E8%8F%9C-%E5%BB%A3%E6%9D%B1-%E7%B4%A0%E9%A3%9F-r2350,24120301,
新界,荃灣,素食工房,港式,蛋奶素,荃灣楊屋道138號樂悠居商場1樓25號舖,"22.366401069469358, 114.11813017763713",,https://www.openrice.com/zh/hongkong/r-%E7%B4%A0%E9%A3%9F%E5%B7%A5%E6%88%BF-%E8%8D%83%E7%81%A3-%E6%B8%AF%E5%BC%8F-%E7%84%A1%E8%82%89%E9%A4%90%E5%96%AE-r812500,63545263,
新界,荃灣,Yau Veggie Bistro,西式,蛋奶素,荃灣白田壩街45號南豐紗廠1樓118號舖,"22.374654937849577, 114.11014705765525",,https://www.openrice.com/zh/hongkong/r-yau-veggie-bistro-%E8%8D%83%E7%81%A3-%E8%A5%BF%E5%BC%8F-%E7%B4%A0%E9%A3%9F-r797550,68990989,
新界,荃灣,天天素食,粵菜,純素,荃灣青山公路荃灣段264-298號南豐中心1樓A440-1號舖,"22.373578159978333, 114.11669265707091",,https://www.openrice.com/zh/hongkong/r-%E5%A4%A9%E5%A4%A9%E7%B4%A0%E9%A3%9F-%E8%8D%83%E7%81%A3-%E7%B2%B5%E8%8F%9C-%E5%BB%A3%E6%9D%B1-%E7%B4%A0%E9%A3%9F-r12410,24125712,
新界,荃灣,天天素食,粵菜,純素,荃灣富華中心商場1樓2B(B),"22.372900471168006, 114.11829513497348",,https://www.openrice.com/zh/hongkong/r-%E5%A4%A9%E5%A4%A9%E7%B4%A0%E9%A3%9F-%E8%8D%83%E7%81%A3-%E7%B2%B5%E8%8F%9C-%E5%BB%A3%E6%9D%B1-%E7%B4%A0%E9%A3%9F-r83412,25959178,
新界,荃灣,圓玄素菜館,"中菜, 粵菜",純素,荃灣三疊潭老圍路圓玄學院,"22.383556643640606, 114.12301009889201",,https://www.openrice.com/zh/hongkong/r-%E5%9C%93%E7%8E%84%E7%B4%A0%E8%8F%9C%E9%A4%A8-%E8%8D%83%E7%81%A3-%E7%B2%B5%E8%8F%9C-%E5%BB%A3%E6%9D%B1-%E7%B4%A0%E9%A3%9F-r4186,24909882,
新界,葵涌,入素 Green Entrance,港式,蛋奶素,葵涌葵昌路72-76號活@KCC8樓804號舖,"22.36264334463479, 114.1322093374068",,https://www.openrice.com/zh/hongkong/r-%E5%85%A5%E7%B4%A0-%E8%91%B5%E6%B6%8C-%E6%B8%AF%E5%BC%8F-%E7%B4%A0%E9%A3%9F-r727029,31608396,
新界,葵涌,Nuttea,台式飲品,純素,葵芳葵富路7號葵涌廣場1樓潮流廊B號舖,"22.35806921843674, 114.12776764736151",,https://www.openrice.com/zh/hongkong/r-nuttea-%E8%91%B5%E8%8A%B3-%E5%8F%B0%E7%81%A3%E8%8F%9C-%E6%9E%9C%E6%B1%81-r706214,65403981,
新界,屯門,大力齋廚,"中菜, 粵菜",蛋奶素,屯門石排頭道5號偉昌工業中心A座地下,"22.400903138362604, 113.96835712978421",,https://www.openrice.com/zh/hongkong/r-%E5%A4%A7%E5%8A%9B%E9%BD%8B%E5%BB%9A-%E5%B1%AF%E9%96%80-%E7%B2%B5%E8%8F%9C-%E5%BB%A3%E6%9D%B1-%E7%B4%A0%E9%A3%9F-r26233,24634888,
新界,屯門,妙法齋,"中菜, 粵菜",蛋奶素,屯門明藝街8號地下,"22.405934741395424, 113.97437265522036",,https://www.openrice.com/zh/hongkong/r-%E5%A6%99%E6%B3%95%E9%BD%8B-%E5%B1%AF%E9%96%80-%E7%B2%B5%E8%8F%9C-%E5%BB%A3%E6%9D%B1-%E7%B4%A0%E9%A3%9F-r18475,24507288,
新界,屯門,常嚐素,Pizza店,蛋奶素,屯門井財街青棉徑5號金寶大廈地下7D號舖,"22.403960417259654, 113.9789985682586",,https://www.openrice.com/zh/hongkong/r-%E5%B8%B8%E5%9A%90%E7%B4%A0-%E5%B1%AF%E9%96%80-%E6%84%8F%E5%A4%A7%E5%88%A9%E8%8F%9C-%E7%B4%A0%E9%A3%9F-r130955,34880072,
新界,屯門,素之苑,"中菜, 粵菜",蛋奶素,屯門青山坊2號華樂大廈地下48號舖,"22.38909496225799, 113.97931869518474",,https://www.openrice.com/zh/hongkong/r-%E7%B4%A0%E4%B9%8B%E8%8B%91-%E5%B1%AF%E9%96%80-%E6%B8%AF%E5%BC%8F-%E7%84%A1%E8%82%89%E9%A4%90%E5%96%AE-r809962,69376322,
新界,元朗,大力素食,"中菜, 粵菜",蛋奶素,元朗媽橫路35號福昌樓地下7號舖,"22.44755582652267, 114.02233406263723",,https://www.openrice.com/zh/hongkong/r-%E5%A4%A7%E5%8A%9B%E7%B4%A0%E9%A3%9F-%E5%85%83%E6%9C%97-%E7%B2%B5%E8%8F%9C-%E5%BB%A3%E6%9D%B1-%E7%B4%A0%E9%A3%9F-r465660,24758928,
新界,元朗,一素店,西式,純素,元朗又新街35號怡豐大廈地下12號舖,"22.44340550390946, 114.03116498442581",,https://www.openrice.com/zh/hongkong/r-%E4%B8%80%E7%B4%A0%E5%BA%97-%E5%85%83%E6%9C%97-%E8%A5%BF%E5%BC%8F-%E6%9C%89%E6%A9%9F%E9%A3%9F%E5%93%81-r763026,24719575,
新界,元朗,齋之寶齋菜館,"中菜, 粵菜",蛋奶素,元朗紅棉圍2號興隆樓地下14號舖,"22.44275829524087, 114.02953453877714",,https://www.openrice.com/zh/hongkong/r-%E9%BD%8B%E4%B9%8B%E5%AF%B6%E9%BD%8B%E8%8F%9C%E9%A4%A8-%E5%85%83%E6%9C%97-%E7%B2%B5%E8%8F%9C-%E5%BB%A3%E6%9D%B1-%E7%B4%A0%E9%A3%9F-r8597,24422986,
新界,元朗,VEG-MIND CAFÉ,"多國菜, Cafe",蛋奶素,元朗錦田高埔村110號天空之城地下17號舖,"22.441662529715845, 114.05506007193001",,https://www.openrice.com/zh/hongkong/r-veg-mind-cafe-%E5%85%83%E6%9C%97-%E8%A5%BF%E5%BC%8F-%E7%84%A1%E8%82%89%E9%A4%90%E5%96%AE-r724690,28816621,
新界,粉嶺,好素聯和純素餐廳,"中菜, 粵菜",純素,粉嶺聯和墟和泰街55號泰昌樓地下A號舖,"22.500336746525072, 114.14245539524697",,https://www.openrice.com/zh/hongkong/r-%E5%A5%BD%E7%B4%A0%E8%81%AF%E5%92%8C%E7%B4%94%E7%B4%A0%E9%A4%90%E5%BB%B3-%E7%B2%89%E5%B6%BA-%E6%B8%AF%E5%BC%8F-%E7%B4%A0%E9%A3%9F-r806758,26826488,
新界,粉嶺,蓬瀛仙館齋廚,"中菜, 粵菜",純素,粉嶺百和路66號,"22.49056657477539, 114.13863195476894",,https://www.openrice.com/zh/hongkong/r-%E8%93%AC%E7%80%9B%E4%BB%99%E9%A4%A8%E9%BD%8B%E5%BB%9A-%E7%B2%89%E5%B6%BA-%E7%B2%B5%E8%8F%9C-%E5%BB%A3%E6%9D%B1-%E7%B4%A0%E9%A3%9F-r906,26693033,
新界,粉嶺,雲泉素食家,"中菜, 粵菜",純素,粉嶺打鼓嶺坪輋路雲泉仙館,"22.53025896562495, 114.15559567087745",,https://www.openrice.com/zh/hongkong/r-%E9%9B%B2%E6%B3%89%E7%B4%A0%E9%A3%9F%E4%B8%AD%E5%BF%83-%E7%B2%89%E5%B6%BA-%E7%B2%B5%E8%8F%9C-%E5%BB%A3%E6%9D%B1-%E7%B4%A0%E9%A3%9F-r12132,26743933,
新界,大埔,蓮花健康素食,"中菜, 粵菜",蛋奶素,大埔廣福道80號德康樓地下,"22.45681196528747, 114.16692923968822",,https://www.openrice.com/zh/hongkong/r-%E8%93%AE%E8%8A%B1%E5%81%A5%E5%BA%B7%E7%B4%A0%E9%A3%9F-%E5%A4%A7%E5%9F%94-%E7%B2%B5%E8%8F%9C-%E5%BB%A3%E6%9D%B1-%E7%B4%A0%E9%A3%9F-r647103,23312833,
新界,大埔,V.W Vegan Cafe,"多國菜, Cafe",純素,大埔寶湖道3號寶湖花園商場2樓227F-06號舖,"22.44952229502503, 114.16813299524527",,https://www.openrice.com/zh/hongkong/r-v-w-vegan-cafe-%E5%A4%A7%E5%9F%94-%E5%A4%9A%E5%9C%8B%E8%8F%9C-%E7%B4%A0%E9%A3%9F-r672530,92891406,
新界,大埔,慧食堂,多國菜,蛋奶素,大埔運頭角里11號舊大埔警署,"22.44678467882632, 114.16947826640948",,https://www.openrice.com/zh/hongkong/r-%E6%85%A7%E9%A3%9F%E5%A0%82-%E5%A4%A7%E5%9F%94-%E5%A4%9A%E5%9C%8B%E8%8F%9C-%E7%B4%A0%E9%A3%9F-r465007,29962800,
新界,大埔,發記粥麵,港式,非素食,大埔鄉事會街8號大埔墟街市及熟食中心2樓CFS18舖,"22.446502785299106, 114.16642616614074",,https://www.openrice.com/zh/hongkong/r-%E7%99%BC%E8%A8%98%E7%B2%A5%E9%BA%B5-%E5%A4%A7%E5%9F%94-%E6%B8%AF%E5%BC%8F-%E7%B2%A5%E5%93%81-r13644,26388079,
新界,大埔,Mayse Artisan Bakery,麵包店,純素,大埔大美督路64號地舖,"22.448058626242446, 114.16521953950884",,https://www.openrice.com/zh/hongkong/r-mayse-artisan-bakery-%E5%A4%A7%E5%9F%94-%E5%A4%9A%E5%9C%8B%E8%8F%9C-%E9%BA%B5%E5%8C%85%E5%BA%97-r564087,98556159,
新界,大埔,嘉道理農場慧食營,多國菜,純素,大埔林村林錦公路嘉道理農場,"22.43349336873408, 114.11719163944144",,https://www.openrice.com/zh/hongkong/r-%E6%85%A7%E9%A3%9F%E7%87%9F-%E5%A4%A7%E5%9F%94-%E8%A5%BF%E5%BC%8F-%E6%9C%89%E6%A9%9F%E9%A3%9F%E5%93%81-r783084,24889945,
新界,大埔,大埔大美督路64號地舖,Pizza店,純素,大埔大美督路64號地舖,"22.473053607378237, 114.23264978801974",,https://www.openrice.com/zh/hongkong/r-mayse-artisan-bakery-%E5%A4%A7%E5%9F%94-%E5%A4%9A%E5%9C%8B%E8%8F%9C-%E9%BA%B5%E5%8C%85%E5%BA%97-r564087,,
新界,中文大學,Woodlands (CUHK) Indian Vegetarian Restaurant 活蘭印度素食餐廳,印度菜,蛋奶素,沙田沙田香港中文大學范克廉樓LG14號舖,"22.418534394714694, 114.20525329694196",,https://www.openrice.com/zh/hongkong/r-woodlands-cuhk-indian-vegetarian-restaurant-sha-tin-indonesian-vegetarian-r787665,55818105,
新界,中文大學,Cafe 330,"多國菜, Cafe",蛋奶素,沙田香港中文大學康本國際學術園 1樓101A室,"22.419699468833656, 114.21101348160073",,https://www.openrice.com/zh/hongkong/r-cafe-330-%E6%B2%99%E7%94%B0-%E8%A5%BF%E5%BC%8F-%E7%B4%A0%E9%A3%9F-r130437,29943932,
新界,沙田,入素 Green Entrance,港式,蛋奶素,沙田石門安群街3號京瑞廣場1期2樓237號舖,"22.38867836968136, 114.20810409693512",,https://www.openrice.com/zh/hongkong/r-%E5%85%A5%E7%B4%A0-%E6%B2%99%E7%94%B0-%E6%B8%AF%E5%BC%8F-%E7%B4%A0%E9%A3%9F-r631466,35903570,
新界,沙田,天賜素齋,"中菜, 粵菜",蛋奶素,沙田德厚街3號禾輋廣場2樓220號舖,"22.388331263068945, 114.19454058175069",,https://www.openrice.com/zh/hongkong/r-%E5%A4%A9%E8%B3%9C%E7%B4%A0%E9%BD%8B-%E6%B2%99%E7%94%B0-%E7%B2%B5%E8%8F%9C-%E5%BB%A3%E6%9D%B1-%E7%B4%A0%E9%A3%9F-r22124,26963345,
新界,沙田,Tempura Makino,日本菜,非素食,沙田沙田正街18號新城市廣場一期1樓159號舖,"22.381634433277313, 114.18817540867761",,https://www.openrice.com/zh/hongkong/r-%E5%A4%A9%E3%81%B7%E3%82%89%E3%81%BE%E3%81%8D%E3%81%AE-%E6%B2%99%E7%94%B0-%E6%97%A5%E6%9C%AC%E8%8F%9C-r747078,28879618,
新界,沙田,素回家,"中菜, 粵菜",蛋奶素,沙田牛皮沙街2號愉翠街市地下2-3號舖,"22.38192557560017, 114.20533929104847",,https://www.openrice.com/zh/hongkong/r-%E7%B4%A0%E5%9B%9E%E5%AE%B6-%E6%B2%99%E7%94%B0-%E7%B2%B5%E8%8F%9C-%E5%BB%A3%E6%9D%B1-%E7%B4%A0%E9%A3%9F-r718296,61449506,
新界,馬鞍山,大自然素食（馬鞍山）,"中菜, 粵菜",蛋奶素,馬鞍山MOS Town4期 3樓3217號舖,"22.425184628004395, 114.23115190288397",,https://www.openrice.com/zh/hongkong/r-%E5%A4%A7%E8%87%AA%E7%84%B6%E7%B4%A0%E9%A3%9F-%E9%A6%AC%E9%9E%8D%E5%B1%B1-%E6%B8%AF%E5%BC%8F-%E7%B4%A0%E9%A3%9F-r611746,22345575,
新界,西貢,2084,"多國菜, Cafe",純素,西貢沙咀街5號地舖,"22.381372671750743, 114.27224179524302",,https://www.openrice.com/zh/hongkong/r-2084-%E8%A5%BF%E8%B2%A2-%E5%A4%9A%E5%9C%8B%E8%8F%9C-%E7%84%A1%E8%82%89%E9%A4%90%E5%96%AE-r661968,64208456,
離島,大嶼山,寶蓮禪寺,"中菜, 粵菜",純素,大嶼山昂坪昂坪路寶蓮禪寺,"22.255974273295315, 113.90752367703402",,https://www.openrice.com/zh/hongkong/r-%E5%AF%B6%E8%93%AE%E7%A6%AA%E5%AF%BA%E9%BD%8B%E5%A0%82-%E5%A4%A7%E5%B6%BC%E5%B1%B1-%E7%B2%B5%E8%8F%9C-%E5%BB%A3%E6%9D%B1-%E7%B4%A0%E9%A3%9F-r13802,29854736,